NORAD_CAT_ID,OBJECT_NAME,OBJECT_TYPE,EPOCH,MEAN_MOTION,ECCENTRICITY,INCLINATION,RA_OF_ASC_NODE,ARG_OF_PERICENTER,MEAN_ANOMALY,BSTAR,MEAN_MOTION_DOT,MEAN_MOTION_DDOT,TLE_LINE0,TLE_LINE1,TLE_LINE2,SEMIMAJOR_AXIS,PERIOD,APOGEE,PERIGEE,DECAYED
53544.0,STARLINK-4303,PAYLOAD,2023-06-23 07:59:44,15.08840326,0.0001073,53.215,190.004,85.4623,274.6492,3.5168e-06,-2.32e-06,0.0,0 STARLINK-4303,1 53544U 22101T   23174.33315326 -.00000232  00000-0  35168-5 0  9996,2 53544  53.2150 190.0040 0001073  85.4623 274.6492 15.08840326 46799,6917.879,95.438,540.487,539.002,0.0
53544.0,STARLINK-4303,PAYLOAD,2023-06-25 01:19:46,15.08835365,0.0001032,53.2148,182.2724,83.1331,276.9779,2.4259e-05,9.8e-07,0.0,0 STARLINK-4303,1 53544U 22101T   23176.05539789  .00000098  00000-0  24259-4 0  9995,2 53544  53.2148 182.2724 0001032  83.1331 276.9779 15.08835365 47054,6917.895,95.438,540.473,539.046,0.0
53544.0,STARLINK-4303,PAYLOAD,2023-06-26 07:32:05,15.08839176,0.000105,53.2148,176.6228,89.1061,271.0052,4.9101e-05,4.94e-06,0.0,0 STARLINK-4303,1 53544U 22101T   23177.31395686  .00000494  00000-0  49101-4 0  9994,2 53544  53.2148 176.6228 0001050  89.1061 271.0052 15.08839176 47241,6917.883,95.438,540.474,539.022,0.0
53544.0,STARLINK-4303,PAYLOAD,2023-06-28 08:49:03,15.08841717,0.0001091,53.2151,167.4035,86.916,273.1957,4.6736e-05,4.56e-06,0.0,0 STARLINK-4303,1 53544U 22101T   23179.36739639  .00000456  00000-0  46736-4 0  9990,2 53544  53.2151 167.4035 0001091  86.9160 273.1957 15.08841717 47554,6917.875,95.437,540.495,538.985,0.0
53544.0,STARLINK-4303,PAYLOAD,2023-06-29 18:12:09,15.0883787,0.0001119,53.2151,161.16,86.3358,273.7762,1.9325e-05,2e-07,0.0,0 STARLINK-4303,1 53544U 22101T   23180.75844002  .00000020  00000-0  19325-4 0  9997,2 53544  53.2151 161.1600 0001119  86.3358 273.7762 15.08837870 47765,6917.887,95.438,540.526,538.978,0.0
53544.0,STARLINK-4303,PAYLOAD,2023-07-01 01:59:53,15.08830101,0.0001123,53.2156,155.211,104.8849,255.2268,1.1673e-05,-1.02e-06,0.0,0 STARLINK-4303,1 53544U 22101T   23182.08325924 -.00000102  00000-0  11673-4 0  9992,2 53544  53.2156 155.2110 0001123 104.8849 255.2268 15.08830101 47964,6917.911,95.438,540.553,538.999,0.0
53544.0,STARLINK-4303,PAYLOAD,2023-07-01 14:42:58,15.08842943,0.0001911,53.2156,152.8324,152.7117,207.3976,-3.312e-05,-8.15e-06,0.0,0 STARLINK-4303,1 53544U 22101T   23182.61317296 -.00000815  00000-0 -33120-4 0  9997,2 53544  53.2156 152.8324 0001911 152.7117 207.3976 15.08842943 48040,6917.871,95.437,541.058,538.414,0.0
53544.0,STARLINK-4303,PAYLOAD,2023-07-02 01:50:40,15.0882681,0.0001127,53.2156,150.7508,105.8824,254.2292,0.0003291,4.952e-05,0.0,0 STARLINK-4303,1 53544U 22101T   23183.07686056  .00004952  00000-0  32910-3 0  9990,2 53544  53.2156 150.7508 0001127 105.8824 254.2292 15.08826810 48119,6917.921,95.438,540.565,539.006,0.0
53544.0,STARLINK-4303,PAYLOAD,2023-07-02 14:33:45,15.08839557,0.0001154,53.2159,148.3728,108.9575,251.1542,0.00031541,4.735e-05,0.0,0 STARLINK-4303,1 53544U 22101T   23183.60677880  .00004735  00000-0  31541-3 0  9992,2 53544  53.2159 148.3728 0001154 108.9575 251.1542 15.08839557 48190,6917.882,95.438,540.545,538.948,0.0
53544.0,STARLINK-4303,PAYLOAD,2023-07-03 03:16:50,15.08854265,0.0001208,53.2147,145.9937,109.0143,251.098,0.00022528,3.301e-05,0.0,0 STARLINK-4303,1 53544U 22101T   23184.13669218  .00003301  00000-0  22528-3 0  9990,2 53544  53.2147 145.9937 0001208 109.0143 251.0980 15.08854265 48272,6917.837,95.437,540.537,538.866,0.0
53544.0,STARLINK-4303,PAYLOAD,2023-07-04 03:07:37,15.08848012,0.0001153,53.2159,141.5333,98.505,261.6073,1.9804e-05,2.7e-07,0.0,0 STARLINK-4303,1 53544U 22101T   23185.13029330  .00000027  00000-0  19804-4 0  9992,2 53544  53.2159 141.5333 0001153  98.5050 261.6073 15.08848012 48425,6917.856,95.437,540.519,538.923,0.0
53544.0,STARLINK-4303,PAYLOAD,2023-07-05 04:33:47,15.08848211,0.0001191,53.2158,136.7739,92.5667,267.5461,-1.8559e-05,-5.83e-06,0.0,0 STARLINK-4303,1 53544U 22101T   23186.19012963 -.00000583  00000-0 -18559-4 0  9998,2 53544  53.2158 136.7739 0001191  92.5667 267.5461 15.08848211 48584,6917.855,95.437,540.544,538.896,0.0
53544.0,STARLINK-4303,PAYLOAD,2023-07-06 02:49:11,15.08840624,0.0001137,53.2157,132.6118,96.7829,263.3293,7.8982e-05,9.69e-06,0.0,0 STARLINK-4303,1 53544U 22101T   23187.11748991  .00000969  00000-0  78982-4 0  9990,2 53544  53.2157 132.6118 0001137  96.7829 263.3293 15.08840624 48728,6917.878,95.438,540.53,538.957,0.0
53544.0,STARLINK-4303,PAYLOAD,2023-07-07 05:50:43,15.088463,0.0001156,53.2154,127.5555,104.6055,255.5065,0.00011243,1.502e-05,0.0,0 STARLINK-4303,1 53544U 22101T   23188.24356468  .00001502  00000-0  11243-3 0  9999,2 53544  53.2154 127.5555 0001156 104.6055 255.5065 15.08846300 48899,6917.861,95.437,540.526,538.926,0.0
53544.0,STARLINK-4303,PAYLOAD,2023-07-08 05:41:31,15.08845598,0.0001334,53.2175,123.0941,94.9383,265.1762,5.4075e-05,5.73e-06,0.0,0 STARLINK-4303,1 53544U 22101T   23189.23716633  .00000573  00000-0  54075-4 0  9991,2 53544  53.2175 123.0941 0001334  94.9383 265.1762 15.08845598 49042,6917.863,95.437,540.651,538.805,0.0
53544.0,STARLINK-4303,PAYLOAD,2023-07-09 03:56:55,15.08838078,0.0001216,53.2165,118.9301,94.3941,265.719,1.1233e-06,-2.7e-06,0.0,0 STARLINK-4303,1 53544U 22101T   23190.16453501 -.00000270  00000-0  11233-5 0  9992,2 53544  53.2165 118.9301 0001216  94.3941 265.7190 15.08838078 49188,6917.886,95.438,540.592,538.91,0.0
53544.0,STARLINK-4303,PAYLOAD,2023-07-10 11:44:38,15.08841112,0.0001164,53.2167,112.9862,97.9834,262.1291,3.8957e-05,3.32e-06,0.0,0 STARLINK-4303,1 53544U 22101T   23191.48933584  .00000332  00000-0  38957-4 0  9991,2 53544  53.2167 112.9862 0001164  97.9834 262.1291 15.08841112 49386,6917.877,95.437,540.547,538.937,0.0
53544.0,STARLINK-4303,PAYLOAD,2023-07-12 03:29:17,15.08840178,0.0001233,53.2167,105.5517,104.1727,255.9403,0.00013098,1.797e-05,0.0,0 STARLINK-4303,1 53544U 22101T   23193.14533846  .00001797  00000-0  13098-3 0  9997,2 53544  53.2167 105.5517 0001233 104.1727 255.9403 15.08840178 49634,6917.88,95.438,540.598,538.892,0.0
53544.0,STARLINK-4303,PAYLOAD,2023-07-13 20:49:18,15.08851641,0.0001131,53.2155,97.8197,68.9544,291.1569,-7.2102e-05,-1.436e-05,0.0,0 STARLINK-4303,1 53544U 22101T   23194.86757830 -.00001436  00000-0 -72102-4 0  9992,2 53544  53.2155  97.8197 0001131  68.9544 291.1569 15.08851641 49899,6917.845,95.437,540.492,538.927,0.0
53544.0,STARLINK-4303,PAYLOAD,2023-07-14 23:50:52,15.08833603,0.0001232,53.2169,92.7633,99.6317,260.4814,0.00027088,4.025e-05,0.0,0 STARLINK-4303,1 53544U 22101T   23195.99365991  .00004025  00000-0  27088-3 0  9997,2 53544  53.2169  92.7633 0001232  99.6317 260.4814 15.08833603 50065,6917.9,95.438,540.617,538.913,0.0
53544.0,STARLINK-4303,PAYLOAD,2023-07-16 02:52:25,15.08838962,9.99e-05,53.2168,87.7085,83.0131,277.0975,2.5594e-05,1.2e-06,0.0,0 STARLINK-4303,1 53544U 22101T   23197.11974105  .00000120  00000-0  25594-4 0  9999,2 53544  53.2168  87.7085 0000999  83.0131 277.0975 15.08838962 50233,6917.884,95.438,540.44,539.057,0.0
53544.0,STARLINK-4303,PAYLOAD,2023-07-17 09:04:44,15.08846111,8.8e-05,53.2163,82.0586,77.2182,282.8908,2.1584e-05,5.6e-07,0.0,0 STARLINK-4303,1 53544U 22101T   23198.37829854  .00000056  00000-0  21584-4 0  9991,2 53544  53.2163  82.0586 0000880  77.2182 282.8908 15.08846111 50428,6917.862,95.437,540.335,539.118,0.0
53544.0,STARLINK-4303,PAYLOAD,2023-07-19 00:49:23,15.0884077,0.0001762,53.2156,74.6245,66.9476,293.1702,2.0874e-05,4.4e-07,0.0,0 STARLINK-4303,1 53544U 22101T   23200.03430450  .00000044  00000-0  20874-4 0  9996,2 53544  53.2156  74.6245 0001762  66.9476 293.1702 15.08840770 50679,6917.878,95.438,540.962,538.524,0.0
53544.0,STARLINK-4303,PAYLOAD,2023-07-20 14:58:39,15.08839489,0.0001195,53.2173,67.487,86.9497,273.1632,5.6298e-05,6.08e-06,0.0,0 STARLINK-4303,1 53544U 22101T   23201.62407003  .00000608  00000-0  56298-4 0  9995,2 53544  53.2173  67.4870 0001195  86.9497 273.1632 15.08839489 50919,6917.882,95.438,540.574,538.92,0.0
53544.0,STARLINK-4303,PAYLOAD,2023-07-20 22:55:34,15.08847222,0.0001438,53.2167,65.9995,90.4871,269.6285,0.0001413,1.962e-05,0.0,0 STARLINK-4303,1 53544U 22101T   23201.95526345  .00001962  00000-0  14130-3 0  9994,2 53544  53.2167  65.9995 0001438  90.4871 269.6285 15.08847222 50962,6917.858,95.437,540.718,538.729,0.0
53544.0,STARLINK-4303,PAYLOAD,2023-07-21 13:14:03,15.08837895,0.0001074,53.2167,63.3225,136.0553,224.0524,0.00011423,1.531e-05,0.0,0 STARLINK-4303,1 53544U 22101T   23202.55142745  .00001531  00000-0  11423-3 0  9993,2 53544  53.2167  63.3225 0001074 136.0553 224.0524 15.08837895 51057,6917.887,95.438,540.495,539.009,0.0
53544.0,STARLINK-4303,PAYLOAD,2023-07-24 00:03:19,15.08837561,0.0001048,53.2172,52.3244,93.4752,266.636,1.2242e-05,-9.3e-07,0.0,0 STARLINK-4303,1 53544U 22101T   23205.00231159 -.00000093  00000-0  12242-4 0  9998,2 53544  53.2172  52.3244 0001048  93.4752 266.6360 15.08837561 52095,6917.888,95.438,540.478,539.028,0.0
53544.0,STARLINK-4303,PAYLOAD,2023-07-25 12:37:11,15.08845238,0.0001128,53.2173,45.4838,95.3566,264.7555,0.00015851,2.236e-05,0.0,0 STARLINK-4303,1 53544U 22101T   23206.52582205  .00002236  00000-0  15851-3 0  9995,2 53544  53.2173  45.4838 0001128  95.3566 264.7555 15.08845238 52322,6917.864,95.437,540.51,538.949,0.0
53544.0,STARLINK-4303,PAYLOAD,2023-07-26 12:27:58,15.08834031,0.0001059,53.217,41.0231,86.1286,273.9827,-9.5998e-05,-1.815e-05,0.0,0 STARLINK-4303,1 53544U 22101T   23207.51942698 -.00001815  00000-0 -95998-4 0  9996,2 53544  53.2170  41.0231 0001059  86.1286 273.9827 15.08834031 52477,6917.899,95.438,540.496,539.031,0.0
53544.0,STARLINK-4303,PAYLOAD,2023-07-26 15:38:44,15.08836676,0.0001107,53.2174,40.4288,95.1929,264.9189,-0.00015855,-2.81e-05,0.0,0 STARLINK-4303,1 53544U 22101T   23207.65190574 -.00002810  00000-0 -15855-3 0  9998,2 53544  53.2174  40.4288 0001107  95.1929 264.9189 15.08836676 51820,6917.891,95.438,540.521,538.99,0.0
